{"type": "FeatureCollection", "features": [ {"type": "Feature", "properties": {"norad_id": 54234, "name": "NOAA 21 (JPSS-2)", "group": "weather", "lat": 69.84043771076345, "lon": -110.90946691344688, "alt_km": 818.4264025364228, "timestamp": "2025-12-03T10:52:57.090365+00:00", "meta": {"OBJECT_NAME": "NOAA 21 (JPSS-2)", "OBJECT_ID": "2022-150A", "EPOCH": "2025-12-03T02:05:15.054720", "MEAN_MOTION": 14.19519755, "ECCENTRICITY": 0.0002539, "INCLINATION": 98.7448, "RA_OF_ASC_NODE": 273.5163, "ARG_OF_PERICENTER": 56.0018, "MEAN_ANOMALY": 304.1399, "EPHEMERIS_TYPE": 0, "CLASSIFICATION_TYPE": "U", "NORAD_CAT_ID": 54234, "ELEMENT_SET_NO": 999, "REV_AT_EPOCH": 15872, "BSTAR": 9.0626e-05, "MEAN_MOTION_DOT": 1.47e-06, "MEAN_MOTION_DDOT": 0}, "tle": {"line1": "1 54234U 22150A   25337.08697980  .00000147  00000+0  90626-4 0  9993", "line2": "2 54234  98.7448 273.5163 0002539  56.0018 304.1399 14.19519755158725"}}, "geometry": {"type": "Point", "coordinates": [-110.90946691344688, 69.84043771076345]}}, {"type": "Feature", "properties": {"norad_id": 54743, "name": "METEOSAT-12 (MTG-I1)", "group": "weather", "lat": -0.3335132334171411, "lon": -124.53768968409527, "alt_km": 35779.34605627885, "timestamp": "2025-12-03T10:52:57.090377+00:00", "meta": {"OBJECT_NAME": "METEOSAT-12 (MTG-I1)", "OBJECT_ID": "2022-170C", "EPOCH": "2025-12-03T01:46:06.873024", "MEAN_MOTION": 1.00273605, "ECCENTRICITY": 0.0001496, "INCLINATION": 0.7168, "RA_OF_ASC_NODE": 29.9715, "ARG_OF_PERICENTER": 214.9181, "MEAN_ANOMALY": 213.5156, "EPHEMERIS_TYPE": 0, "CLASSIFICATION_TYPE": "U", "NORAD_CAT_ID": 54743, "ELEMENT_SET_NO": 999, "REV_AT_EPOCH": 1101, "BSTAR": 0, "MEAN_MOTION_DOT": 1.2e-07, "MEAN_MOTION_DDOT": 0}, "tle": {"line1": "1 54743U 22170C   25337.07369066  .00000012  00000+0  00000+0 0  9993", "line2": "2 54743   0.7168  29.9715 0001496 214.9181 213.5156  1.00273605 11016"}}, "geometry": {"type": "Point", "coordinates": [-124.53768968409527, -0.3335132334171411]}}, {"type": "Feature", "properties": {"norad_id": 55973, "name": "TIANMU-1 03", "group": "weather", "lat": -82.04916545231592, "lon": -149.31638069822148, "alt_km": 455.1119430753106, "timestamp": "2025-12-03T10:52:57.090388+00:00", "meta": {"OBJECT_NAME": "TIANMU-1 03", "OBJECT_ID": "2023-039A", "EPOCH": "2025-12-03T05:01:33.213216", "MEAN_MOTION": 15.4048723, "ECCENTRICITY": 0.0004563, "INCLINATION": 97.5101, "RA_OF_ASC_NODE": 139.5977, "ARG_OF_PERICENTER": 88.6663, "MEAN_ANOMALY": 271.5106, "EPHEMERIS_TYPE": 0, "CLASSIFICATION_TYPE": "U", "NORAD_CAT_ID": 55973, "ELEMENT_SET_NO": 999, "REV_AT_EPOCH": 15059, "BSTAR": 0.00049114, "MEAN_MOTION_DOT": 0.00019858, "MEAN_MOTION_DDOT": 0}, "tle": {"line1": "1 55973U 23039A   25337.20941219  .00019858  00000+0  49114-3 0  9996", "line2": "2 55973  97.5101 139.5977 0004563  88.6663 271.5106 15.40487230150596"}}, "geometry": {"type": "Point", "coordinates": [-149.31638069822148, -82.04916545231592]}}, {"type": "Feature", "properties": {"norad_id": 55974, "name": "TIANMU-1 04", "group": "weather", "lat": 15.148092754151714, "lon": 136.99829572221302, "alt_km": 443.28913439644657, "timestamp": "2025-12-03T10:52:57.090399+00:00", "meta": {"OBJECT_NAME": "TIANMU-1 04", "OBJECT_ID": "2023-039B", "EPOCH": "2025-12-03T04:34:54.924672", "MEAN_MOTION": 15.40816361, "ECCENTRICITY": 0.0005233, "INCLINATION": 97.5033, "RA_OF_ASC_NODE": 138.7737, "ARG_OF_PERICENTER": 84.7043, "MEAN_ANOMALY": 275.4801, "EPHEMERIS_TYPE": 0, "CLASSIFICATION_TYPE": "U", "NORAD_CAT_ID": 55974, "ELEMENT_SET_NO": 999, "REV_AT_EPOCH": 15059, "BSTAR": 0.00050051, "MEAN_MOTION_DOT": 0.00020464, "MEAN_MOTION_DDOT": 0}, "tle": {"line1": "1 55974U 23039B   25337.19091348  .00020464  00000+0  50051-3 0  9991", "line2": "2 55974  97.5033 138.7737 0005233  84.7043 275.4801 15.40816361150596"}}, "geometry": {"type": "Point", "coordinates": [136.99829572221302, 15.148092754151714]}}, {"type": "Feature", "properties": {"norad_id": 55975, "name": "TIANMU-1 05", "group": "weather", "lat": 58.95194271499707, "lon": 126.88012216649992, "alt_km": 437.00078106339333, "timestamp": "2025-12-03T10:52:57.090410+00:00", "meta": {"OBJECT_NAME": "TIANMU-1 05", "OBJECT_ID": "2023-039C", "EPOCH": "2025-12-03T04:23:16.725408", "MEAN_MOTION": 15.4044512, "ECCENTRICITY": 0.0004319, "INCLINATION": 97.5079, "RA_OF_ASC_NODE": 139.2573, "ARG_OF_PERICENTER": 105.3297, "MEAN_ANOMALY": 254.8427, "EPHEMERIS_TYPE": 0, "CLASSIFICATION_TYPE": "U", "NORAD_CAT_ID": 55975, "ELEMENT_SET_NO": 999, "REV_AT_EPOCH": 15057, "BSTAR": 0.00049671, "MEAN_MOTION_DOT": 0.00020057, "MEAN_MOTION_DDOT": 0}, "tle": {"line1": "1 55975U 23039C   25337.18283247  .00020057  00000+0  49671-3 0  9996", "line2": "2 55975  97.5079 139.2573 0004319 105.3297 254.8427 15.40445120150570"}}, "geometry": {"type": "Point", "coordinates": [126.88012216649992, 58.95194271499707]}}, {"type": "Feature", "properties": {"norad_id": 55976, "name": "TIANMU-1 06", "group": "weather", "lat": 1.45146028876266, "lon": 139.8011366414679, "alt_km": 446.89756526042584, "timestamp": "2025-12-03T10:52:57.090420+00:00", "meta": {"OBJECT_NAME": "TIANMU-1 06", "OBJECT_ID": "2023-039D", "EPOCH": "2025-12-03T04:38:30.888384", "MEAN_MOTION": 15.40869491, "ECCENTRICITY": 0.0004661, "INCLINATION": 97.509, "RA_OF_ASC_NODE": 139.7255, "ARG_OF_PERICENTER": 100.9149, "MEAN_ANOMALY": 259.2621, "EPHEMERIS_TYPE": 0, "CLASSIFICATION_TYPE": "U", "NORAD_CAT_ID": 55976, "ELEMENT_SET_NO": 999, "REV_AT_EPOCH": 15059, "BSTAR": 0.00049987, "MEAN_MOTION_DOT": 0.00020472, "MEAN_MOTION_DDOT": 0}, "tle": {"line1": "1 55976U 23039D   25337.19341306  .00020472  00000+0  49987-3 0  9990", "line2": "2 55976  97.5090 139.7255 0004661 100.9149 259.2621 15.40869491150591"}}, "geometry": {"type": "Point", "coordinates": [139.8011366414679, 1.45146028876266]}}, {"type": "Feature", "properties": {"norad_id": 56232, "name": "FENGYUN 3G", "group": "weather", "lat": -28.038425282349714, "lon": -111.22496522854006, "alt_km": 416.86828907459403, "timestamp": "2025-12-03T10:52:57.090443+00:00", "meta": {"OBJECT_NAME": "FENGYUN 3G", "OBJECT_ID": "2023-055A", "EPOCH": "2025-12-03T04:52:02.790048", "MEAN_MOTION": 15.52761561, "ECCENTRICITY": 0.0009248, "INCLINATION": 49.9947, "RA_OF_ASC_NODE": 276.6369, "ARG_OF_PERICENTER": 102.5547, "MEAN_ANOMALY": 257.6455, "EPHEMERIS_TYPE": 0, "CLASSIFICATION_TYPE": "U", "NORAD_CAT_ID": 56232, "ELEMENT_SET_NO": 999, "REV_AT_EPOCH": 14954, "BSTAR": 0.00064, "MEAN_MOTION_DOT": 0.00040173, "MEAN_MOTION_DDOT": 0}, "tle": {"line1": "1 56232U 23055A   25337.20281007  .00040173  00000+0  64000-3 0  9990", "line2": "2 56232  49.9947 276.6369 0009248 102.5547 257.6455 15.52761561149544"}}, "geometry": {"type": "Point", "coordinates": [-111.22496522854006, -28.038425282349714]}}, {"type": "Feature", "properties": {"norad_id": 57166, "name": "METEOR-M2 3", "group": "weather", "lat": -8.153369280344286, "lon": -150.0936590711372, "alt_km": 818.5622963254373, "timestamp": "2025-12-03T10:52:57.090456+00:00", "meta": {"OBJECT_NAME": "METEOR-M2 3", "OBJECT_ID": "2023-091A", "EPOCH": "2025-12-03T04:56:35.200608", "MEAN_MOTION": 14.24024185, "ECCENTRICITY": 0.0004413, "INCLINATION": 98.6393, "RA_OF_ASC_NODE": 30.9113, "ARG_OF_PERICENTER": 34.3019, "MEAN_ANOMALY": 325.8444, "EPHEMERIS_TYPE": 0, "CLASSIFICATION_TYPE": "U", "NORAD_CAT_ID": 57166, "ELEMENT_SET_NO": 999, "REV_AT_EPOCH": 12662, "BSTAR": 3.8962e-05, "MEAN_MOTION_DOT": 4.6e-07, "MEAN_MOTION_DDOT": 0}, "tle": {"line1": "1 57166U 23091A   25337.20596297  .00000046  00000+0  38962-4 0  9991", "line2": "2 57166  98.6393  30.9113 0004413  34.3019 325.8444 14.24024185126622"}}, "geometry": {"type": "Point", "coordinates": [-150.0936590711372, -8.153369280344286]}}, {"type": "Feature", "properties": {"norad_id": 57399, "name": "TIANMU-1 07", "group": "weather", "lat": 33.3238234519746, "lon": -147.66258636930704, "alt_km": 477.3815428882226, "timestamp": "2025-12-03T10:52:57.090470+00:00", "meta": {"OBJECT_NAME": "TIANMU-1 07", "OBJECT_ID": "2023-101A", "EPOCH": "2025-12-03T03:57:26.927136", "MEAN_MOTION": 15.27849331, "ECCENTRICITY": 0.0005584, "INCLINATION": 97.2896, "RA_OF_ASC_NODE": 27.2274, "ARG_OF_PERICENTER": 105.789, "MEAN_ANOMALY": 254.3966, "EPHEMERIS_TYPE": 0, "CLASSIFICATION_TYPE": "U", "NORAD_CAT_ID": 57399, "ELEMENT_SET_NO": 999, "REV_AT_EPOCH": 13169, "BSTAR": 0.00038114, "MEAN_MOTION_DOT": 0.00010299, "MEAN_MOTION_DDOT": 0}, "tle": {"line1": "1 57399U 23101A   25337.16489499  .00010299  00000+0  38114-3 0  9990", "line2": "2 57399  97.2896  27.2274 0005584 105.7890 254.3966 15.27849331131690"}}, "geometry": {"type": "Point", "coordinates": [-147.66258636930704, 33.3238234519746]}}, {"type": "Feature", "properties": {"norad_id": 57400, "name": "TIANMU-1 08", "group": "weather", "lat": -31.386131246150672, "lon": 31.78754960797982, "alt_km": 492.39829723243747, "timestamp": "2025-12-03T10:52:57.090484+00:00", "meta": {"OBJECT_NAME": "TIANMU-1 08", "OBJECT_ID": "2023-101B", "EPOCH": "2025-12-03T04:44:00.735936", "MEAN_MOTION": 15.27835239, "ECCENTRICITY": 0.0007461, "INCLINATION": 97.2885, "RA_OF_ASC_NODE": 27.0587, "ARG_OF_PERICENTER": 110.6778, "MEAN_ANOMALY": 249.5262, "EPHEMERIS_TYPE": 0, "CLASSIFICATION_TYPE": "U", "NORAD_CAT_ID": 57400, "ELEMENT_SET_NO": 999, "REV_AT_EPOCH": 13169, "BSTAR": 0.00036202, "MEAN_MOTION_DOT": 9.778e-05, "MEAN_MOTION_DDOT": 0}, "tle": {"line1": "1 57400U 23101B   25337.19723074  .00009778  00000+0  36202-3 0  9992", "line2": "2 57400  97.2885  27.0587 0007461 110.6778 249.5262 15.27835239131699"}}, "geometry": {"type": "Point", "coordinates": [31.78754960797982, -31.386131246150672]}}]}